[{"OBJECT_NAME":"TEVEL2-9","OBJECT_ID":"2025-052AD","EPOCH":"2026-03-09T16:51:18.321696","MEAN_MOTION":15.28633834,"ECCENTRICITY":0.000799,"INCLINATION":97.4057,"RA_OF_ASC_NODE":324.3929,"ARG_OF_PERICENTER":124.2475,"MEAN_ANOMALY":235.9522,"EPHEMERIS_TYPE":0,"CLASSIFICATION_TYPE":"U","NORAD_CAT_ID":63237,"ELEMENT_SET_NO":999,"REV_AT_EPOCH":5481,"BSTAR":0.00067240159,"MEAN_MOTION_DOT":0.00018694,"MEAN_MOTION_DDOT":0},{"OBJECT_NAME":"STARLINK-35640","OBJECT_ID":"2025-265W","EPOCH":"2026-03-09T23:05:29.944032","MEAN_MOTION":15.27593141,"ECCENTRICITY":1.627e-5,"INCLINATION":42.9995,"RA_OF_ASC_NODE":276.5185,"ARG_OF_PERICENTER":152.7978,"MEAN_ANOMALY":207.2882,"EPHEMERIS_TYPE":0,"CLASSIFICATION_TYPE":"U","NORAD_CAT_ID":66536,"ELEMENT_SET_NO":999,"REV_AT_EPOCH":1715,"BSTAR":0.00084926025,"MEAN_MOTION_DOT":0.00023191,"MEAN_MOTION_DDOT":0}]
